DUCHIFAT-1              
1 40021U 14033M   26166.42257015  .00087303  00000+0  90897-3 0  9991
2 40021  98.0462 225.3358 0003280 119.3803 240.7782 15.64281009655477
NANOSATC-BR1            
1 40024U 14033Q   26167.02931394  .00014660  00000+0  48537-3 0  9990
2 40024  98.0716 199.3145 0004305 165.7271 194.4091 15.31427281653800
QB50P1                  
1 40025U 14033R   26167.55691678  .00006273  00000+0  30978-3 0  9998
2 40025  98.0959 178.6589 0007736 217.5219 142.5474 15.18252996652937
DTUSAT-2                
1 40030U 14033W   26167.51138486  .00005343  00000+0  28992-3 0  9993
2 40030  98.0860 165.1955 0006561 227.8429 132.2245 15.15011163652583
QB50P2                  
1 40032U 14033Y   26167.57176880  .00005101  00000+0  27579-3 0  9993
2 40032  98.0746 164.4136 0007953 164.9395 195.2074 15.15151501652579
PERSEUS-M1              
1 40039U 14033AF  26167.56783942  .00001183  00000+0  11191-3 0  9991
2 40039  97.9641 111.6894 0010359 303.7441  56.2791 14.95629129650542
POLYITAN-1              
1 40042U 14033AJ  26167.59544551  .00014265  00000+0  44614-3 0  9990
2 40042  98.0938 193.8005 0008597 143.0549 217.1284 15.33237814653501
TIGRISAT                
1 40043U 14033AK  26167.37474662  .00001794  00000+0  21114-3 0  9995
2 40043  97.7829 317.4045 0050609  77.8381 282.8497 14.85160382645501
CANX-4                  
1 40055U 14034C   26167.61149140  .00000755  00000+0  10412-3 0  9991
2 40055  98.3123  42.9035 0013211  18.8491 341.3207 14.81263782644448
CANX-5                  
1 40056U 14034D   26167.60993126  .00000764  00000+0  10526-3 0  9998
2 40056  98.3124  42.9454 0013220  19.0203 341.1499 14.81281049635255
GONETS-M 10             
1 40063U 14036C   26167.66798358 -.00000027  00000+0 -26385-3 0  9998
2 40063  82.5111 307.9964 0022637 141.6435 218.6259 12.42945432542184
METEOR-M 2              
1 40069U 14037A   26167.65287367 -.00000302  00000+0 -11903-3 0  9993
2 40069  98.5109 143.4101 0006802  45.6406 314.5328 14.21459824619246
DX1                     
1 40071U 14037C   26167.62272738  .00000635  00000+0  72418-4 0  9995
2 40071  98.3864 129.2900 0005827 278.1918  81.8637 14.89980991646022
UKUBE-1                 
1 40074U 14037F   26167.57325824  .00006564  00000+0  37046-3 0  9991
2 40074  98.4228 170.7806 0002582 133.5977 226.5466 15.13544703648463
GAOFEN-2                
1 40118U 14049A   26167.63580709  .00000516  00000+0  73624-4 0  9999
2 40118  98.0114 231.8436 0006074 229.2988 130.7697 14.80898712639158
BRITE-PL2 (HEWELIUSZ)   
1 40119U 14049B   26167.30201463  .00001445  00000+0  13881-3 0  9991
2 40119  97.9097 279.2951 0015251 111.1081 249.1771 14.94590679641310
CBERS 4                 
1 40336U 14079A   26167.61900009  .00000430  00000+0  16407-3 0  9991
2 40336  98.3534 224.4683 0001873  63.8623 296.2756 14.35510115603873
SMAP                    
1 40376U 15003A   26167.60125794  .00000346  00000+0  76015-4 0  9990
2 40376  98.1276 174.7041 0001321  96.7265 263.4087 14.63366203607536
GONETS-M 11             
1 40552U 15020A   26167.60587861  .00000095  00000+0  61378-3 0  9998
2 40552  82.4872  31.3547 0016674   7.0198 353.1112 12.42877498508664
GONETS-M 12             
1 40553U 15020B   26167.57937515  .00000073  00000+0  45611-3 0  9998
2 40553  82.4906  32.4948 0015390 352.3375   7.7467 12.42891384508651
GONETS-M 13             
1 40554U 15020C   26167.55284708  .00000037  00000+0  19802-3 0  9999
2 40554  82.4868  31.1266 0013711 337.7359  22.3124 12.42870428508628
DMC3-FM1                
1 40715U 15032A   26167.59923013  .00000844  00000+0  10309-3 0  9993
2 40715  97.6463  32.7979 0007082  61.4828 298.7100 14.85740397589824
DMC3-FM2                
1 40716U 15032B   26167.62128573 -.00000175  00000+0 -14275-4 0  9992
2 40716  97.6517  34.3921 0007589  65.0062 295.1941 14.85741987589822
DMC3-FM3                
1 40717U 15032C   26167.57726066  .00000247  00000+0  34378-4 0  9992
2 40717  97.6568  36.1023 0006728  66.0083 294.1836 14.85731518589821
CARBONITE 1 (CBNT-1)    
1 40718U 15032D   26167.64294711  .00001283  00000+0  16164-3 0  9991
2 40718  97.6497 345.7317 0013202 299.9756  60.0147 14.83584869589263
LILACSAT-2              
1 40908U 15049K   26167.56277610  .00014164  00000+0  24175-3 0  9993
2 40908  97.4641 204.3807 0005486 248.0820 111.9849 15.51427567595651
