OBJECT_NAME,OBJECT_ID,EPOCH,MEAN_MOTION,ECCENTRICITY,INCLINATION,RA_OF_ASC_NODE,ARG_OF_PERICENTER,MEAN_ANOMALY,EPHEMERIS_TYPE,CLASSIFICATION_TYPE,NORAD_CAT_ID,ELEMENT_SET_NO,REV_AT_EPOCH,BSTAR,MEAN_MOTION_DOT,MEAN_MOTION_DDOT
DUCHIFAT-1,2014-033M,2026-06-15T10:08:30.060960,15.64281009,.000328,98.0462,225.3358,119.3803,240.7782,0,U,40021,999,65547,.90896671E-3,.87303E-3,0
NANOSATC-BR1,2014-033Q,2026-06-16T00:42:12.724416,15.31427281,.00043059,98.0716,199.3145,165.7271,194.4091,0,U,40024,999,65380,.48536692E-3,.1466E-3,0
QB50P1,2014-033R,2026-06-16T13:21:57.609792,15.18252996,.00077363,98.0959,178.6589,217.5219,142.5474,0,U,40025,999,65293,.30977853E-3,.6273E-4,0
DTUSAT-2,2014-033W,2026-06-16T12:16:23.651904,15.15011163,.00065619,98.0860,165.1955,227.8429,132.2245,0,U,40030,999,65258,.28991501E-3,.5343E-4,0
QB50P2,2014-033Y,2026-06-16T13:43:20.824320,15.15151501,.00079531,98.0746,164.4136,164.9395,195.2074,0,U,40032,999,65257,.27579388E-3,.5101E-4,0
PERSEUS-M1,2014-033AF,2026-06-16T13:37:41.325888,14.95629129,.00103592,97.9641,111.6894,303.7441,56.2791,0,U,40039,999,65054,.11191065E-3,.1183E-4,0
POLYITAN-1,2014-033AJ,2026-06-16T14:17:26.492064,15.33237814,.00085971,98.0938,193.8005,143.0549,217.1284,0,U,40042,999,65350,.4461352E-3,.14265E-3,0
TIGRISAT,2014-033AK,2026-06-16T08:59:38.107968,14.85160382,.00506092,97.7829,317.4045,77.8381,282.8497,0,U,40043,999,64550,.21114101E-3,.1794E-4,0
CANX-4,2014-034C,2026-06-16T14:40:32.856960,14.81263782,.00132114,98.3123,42.9035,18.8491,341.3207,0,U,40055,999,64444,.10412025E-3,.755E-5,0
CANX-5,2014-034D,2026-06-16T14:38:18.060864,14.81281049,.00132204,98.3124,42.9454,19.0203,341.1499,0,U,40056,999,63525,.10525873E-3,.764E-5,0
GONETS-M 10,2014-036C,2026-06-16T16:01:53.781312,12.42945432,.00226371,82.5111,307.9964,141.6435,218.6259,0,U,40063,999,54218,-.26384652E-3,-.27E-6,0
METEOR-M 2,2014-037A,2026-06-16T15:40:08.285088,14.21459824,.00068025,98.5109,143.4101,45.6406,314.5328,0,U,40069,999,61924,-.11902726E-3,-.302E-5,0
DX1,2014-037C,2026-06-16T14:56:43.645632,14.89980991,.00058279,98.3864,129.2900,278.1918,81.8637,0,U,40071,999,64602,.72417632E-4,.635E-5,0
UKUBE-1,2014-037F,2026-06-16T13:45:29.511936,15.13544703,.00025827,98.4228,170.7806,133.5977,226.5466,0,U,40074,999,64846,.37045701E-3,.6564E-4,0
GAOFEN-2,2014-049A,2026-06-16T15:15:33.732576,14.80898712,.00060746,98.0114,231.8436,229.2988,130.7697,0,U,40118,999,63915,.73624443E-4,.516E-5,0
BRITE-PL2 (HEWELIUSZ),2014-049B,2026-06-16T07:14:54.064032,14.94590679,.0015251,97.9097,279.2951,111.1081,249.1771,0,U,40119,999,64131,.13881E-3,.1445E-4,0
CBERS 4,2014-079A,2026-06-16T14:51:21.607776,14.35510115,.00018737,98.3534,224.4683,63.8623,296.2756,0,U,40336,999,60387,.16407012E-3,.43E-5,0
SMAP,2015-003A,2026-06-16T14:25:48.686016,14.63366203,.0001321,98.1276,174.7041,96.7265,263.4087,0,U,40376,999,60753,.76014607E-4,.346E-5,0
GONETS-M 11,2015-020A,2026-06-16T14:32:27.911904,12.42877498,.00166743,82.4872,31.3547,7.0198,353.1112,0,U,40552,999,50866,.6137788E-3,.95E-6,0
GONETS-M 12,2015-020B,2026-06-16T13:54:18.012960,12.42891384,.00153902,82.4906,32.4948,352.3375,7.7467,0,U,40553,999,50865,.45610533E-3,.73E-6,0
GONETS-M 13,2015-020C,2026-06-16T13:16:05.987712,12.42870428,.00137115,82.4868,31.1266,337.7359,22.3124,0,U,40554,999,50862,.19802059E-3,.37E-6,0
DMC3-FM1,2015-032A,2026-06-16T14:22:53.483232,14.85740397,.00070823,97.6463,32.7979,61.4828,298.7100,0,U,40715,999,58982,.10309161E-3,.844E-5,0
DMC3-FM2,2015-032B,2026-06-16T14:54:39.087072,14.85741987,.0007589,97.6517,34.3921,65.0062,295.1941,0,U,40716,999,58982,-.1427468E-4,-.175E-5,0
DMC3-FM3,2015-032C,2026-06-16T13:51:15.321024,14.85731518,.00067281,97.6568,36.1023,66.0083,294.1836,0,U,40717,999,58982,.34378437E-4,.247E-5,0
CARBONITE 1 (CBNT-1),2015-032D,2026-06-16T15:25:50.630304,14.83584869,.00132021,97.6497,345.7317,299.9756,60.0147,0,U,40718,999,58926,.1616386E-3,.1283E-4,0
LILACSAT-2,2015-049K,2026-06-16T13:30:23.855040,15.51427567,.00054864,97.4641,204.3807,248.0820,111.9849,0,U,40908,999,59565,.24174537E-3,.14164E-3,0
